ALOS (DAICHI)           
1 28931U 06002A   26046.78583324  .00001525  00000+0  26412-3 0  9999
2 28931  98.1182   2.8578 0001827  58.4569 301.6815 14.69735984 70264
H-2A R/B                
1 28932U 06002B   26046.83018117  .00009183  00000+0  46622-3 0  9992
2 28932  98.2368 191.9892 0052340 316.5235  43.1874 15.15959091 91125
RESURS-DK 1             
1 29228U 06021A   26046.77961874  .00002491  00000+0  14843-3 0  9997
2 29228  69.9335 293.6962 0003841 193.5774 166.5289 15.12615056 84213
CZ-4B R/B               
1 29507U 06046C   26046.57488423  .00005296  00000+0  27047-3 0  9992
2 29507  97.5641  91.5419 0032949 347.0379  13.0003 15.16663288 56695
CZ-2C R/B               
1 31114U 07010B   26046.74541940  .00000116  00000+0  72206-4 0  9998
2 31114  98.3971 161.1256 0058847 359.2298   0.8780 14.20238394976608
COSMO-SKYMED 1          
1 31598U 07023A   26046.79912753  .00004396  00000+0  39359-3 0  9992
2 31598  97.8853 237.6585 0001261  94.4039 265.7326 14.96357221 11635
COSMOS 2428             
1 31792U 07029A   26046.80059368  .00000261  00000+0  16591-3 0  9990
2 31792  70.9399 249.2912 0007839 301.8564  58.1794 14.12937545961005
SL-16 R/B               
1 31793U 07029B   26046.79460455  .00000094  00000+0  73416-4 0  9996
2 31793  70.9743 218.4072 0002258 282.5684 172.7826 14.14836137962278
KORONAS-FOTON           
1 33504U 09003A   26046.78014712  .00014320  00000+0  32636-3 0  9997
2 33504  82.4314 298.6457 0009210 231.0260 129.0167 15.42743893942362
CZ-2C R/B               
1 37731U 11030B   26046.79142564  .00001707  00000+0  22105-3 0  9999
2 37731  97.8508   4.5008 0054105  62.3592 357.9811 14.81134278786856
H-2A R/B                
1 38341U 12025E   26046.77646865  .00004809  00000+0  43742-3 0  9999
2 38341  98.4688  12.0788 0045389  26.4482 333.9039 14.94969589744947
SHIJIAN-16 (SJ-16)      
1 39358U 13057A   26046.84059757  .00000867  00000+0  87624-4 0  9998
2 39358  74.9699 226.4477 0016532 167.4932 192.6670 14.92255223668247
