CCSDS_OMM_VERS = 2.0
CREATION_DATE  = 
ORIGINATOR     = 

OBJECT_NAME    = ALOS (DAICHI)
OBJECT_ID      = 2006-002A
CENTER_NAME    = EARTH
REF_FRAME      = TEME
TIME_SYSTEM    = UTC
MEAN_ELEMENT_THEORY = SGP/SGP4

EPOCH          = 2026-02-15T18:51:35.991936
MEAN_MOTION    = 14.69735984
ECCENTRICITY   = .0001827
INCLINATION    = 98.1182
RA_OF_ASC_NODE = 2.8578
ARG_OF_PERICENTER = 58.4569
MEAN_ANOMALY   = 301.6815

EPHEMERIS_TYPE = 0
CLASSIFICATION_TYPE = U
NORAD_CAT_ID   = 28931
ELEMENT_SET_NO = 999
REV_AT_EPOCH   = 7026
BSTAR          = .26412E-3
MEAN_MOTION_DOT = .1525E-4
MEAN_MOTION_DDOT = 0

CCSDS_OMM_VERS = 2.0
CREATION_DATE  = 
ORIGINATOR     = 

OBJECT_NAME    = H-2A R/B
OBJECT_ID      = 2006-002B
CENTER_NAME    = EARTH
REF_FRAME      = TEME
TIME_SYSTEM    = UTC
MEAN_ELEMENT_THEORY = SGP/SGP4

EPOCH          = 2026-02-15T19:55:27.653088
MEAN_MOTION    = 15.15959091
ECCENTRICITY   = .005234
INCLINATION    = 98.2368
RA_OF_ASC_NODE = 191.9892
ARG_OF_PERICENTER = 316.5235
MEAN_ANOMALY   = 43.1874

EPHEMERIS_TYPE = 0
CLASSIFICATION_TYPE = U
NORAD_CAT_ID   = 28932
ELEMENT_SET_NO = 999
REV_AT_EPOCH   = 9112
BSTAR          = .46622E-3
MEAN_MOTION_DOT = .9183E-4
MEAN_MOTION_DDOT = 0

CCSDS_OMM_VERS = 2.0
CREATION_DATE  = 
ORIGINATOR     = 

OBJECT_NAME    = RESURS-DK 1
OBJECT_ID      = 2006-021A
CENTER_NAME    = EARTH
REF_FRAME      = TEME
TIME_SYSTEM    = UTC
MEAN_ELEMENT_THEORY = SGP/SGP4

EPOCH          = 2026-02-15T18:42:39.059136
MEAN_MOTION    = 15.12615056
ECCENTRICITY   = .0003841
INCLINATION    = 69.9335
RA_OF_ASC_NODE = 293.6962
ARG_OF_PERICENTER = 193.5774
MEAN_ANOMALY   = 166.5289

EPHEMERIS_TYPE = 0
CLASSIFICATION_TYPE = U
NORAD_CAT_ID   = 29228
ELEMENT_SET_NO = 999
REV_AT_EPOCH   = 8421
BSTAR          = .14843E-3
MEAN_MOTION_DOT = .2491E-4
MEAN_MOTION_DDOT = 0

CCSDS_OMM_VERS = 2.0
CREATION_DATE  = 
ORIGINATOR     = 

OBJECT_NAME    = CZ-4B R/B
OBJECT_ID      = 2006-046C
CENTER_NAME    = EARTH
REF_FRAME      = TEME
TIME_SYSTEM    = UTC
MEAN_ELEMENT_THEORY = SGP/SGP4

EPOCH          = 2026-02-15T13:47:49.997472
MEAN_MOTION    = 15.16663288
ECCENTRICITY   = .0032949
INCLINATION    = 97.5641
RA_OF_ASC_NODE = 91.5419
ARG_OF_PERICENTER = 347.0379
MEAN_ANOMALY   = 13.0003

EPHEMERIS_TYPE = 0
CLASSIFICATION_TYPE = U
NORAD_CAT_ID   = 29507
ELEMENT_SET_NO = 999
REV_AT_EPOCH   = 5669
BSTAR          = .27047E-3
MEAN_MOTION_DOT = .5296E-4
MEAN_MOTION_DDOT = 0

CCSDS_OMM_VERS = 2.0
CREATION_DATE  = 
ORIGINATOR     = 

OBJECT_NAME    = CZ-2C R/B
OBJECT_ID      = 2007-010B
CENTER_NAME    = EARTH
REF_FRAME      = TEME
TIME_SYSTEM    = UTC
MEAN_ELEMENT_THEORY = SGP/SGP4

EPOCH          = 2026-02-15T17:53:24.236160
MEAN_MOTION    = 14.20238394
ECCENTRICITY   = .0058847
INCLINATION    = 98.3971
RA_OF_ASC_NODE = 161.1256
ARG_OF_PERICENTER = 359.2298
MEAN_ANOMALY   = 0.8780

EPHEMERIS_TYPE = 0
CLASSIFICATION_TYPE = U
NORAD_CAT_ID   = 31114
ELEMENT_SET_NO = 999
REV_AT_EPOCH   = 97660
BSTAR          = .72206E-4
MEAN_MOTION_DOT = .116E-5
MEAN_MOTION_DDOT = 0

CCSDS_OMM_VERS = 2.0
CREATION_DATE  = 
ORIGINATOR     = 

OBJECT_NAME    = COSMO-SKYMED 1
OBJECT_ID      = 2007-023A
CENTER_NAME    = EARTH
REF_FRAME      = TEME
TIME_SYSTEM    = UTC
MEAN_ELEMENT_THEORY = SGP/SGP4

EPOCH          = 2026-02-15T19:10:44.618592
MEAN_MOTION    = 14.96357221
ECCENTRICITY   = .0001261
INCLINATION    = 97.8853
RA_OF_ASC_NODE = 237.6585
ARG_OF_PERICENTER = 94.4039
MEAN_ANOMALY   = 265.7326

EPHEMERIS_TYPE = 0
CLASSIFICATION_TYPE = U
NORAD_CAT_ID   = 31598
ELEMENT_SET_NO = 999
REV_AT_EPOCH   = 1163
BSTAR          = .39359E-3
MEAN_MOTION_DOT = .4396E-4
MEAN_MOTION_DDOT = 0

CCSDS_OMM_VERS = 2.0
CREATION_DATE  = 
ORIGINATOR     = 

OBJECT_NAME    = COSMOS 2428
OBJECT_ID      = 2007-029A
CENTER_NAME    = EARTH
REF_FRAME      = TEME
TIME_SYSTEM    = UTC
MEAN_ELEMENT_THEORY = SGP/SGP4

EPOCH          = 2026-02-15T19:12:51.293952
MEAN_MOTION    = 14.12937545
ECCENTRICITY   = .0007839
INCLINATION    = 70.9399
RA_OF_ASC_NODE = 249.2912
ARG_OF_PERICENTER = 301.8564
MEAN_ANOMALY   = 58.1794

EPHEMERIS_TYPE = 0
CLASSIFICATION_TYPE = U
NORAD_CAT_ID   = 31792
ELEMENT_SET_NO = 999
REV_AT_EPOCH   = 96100
BSTAR          = .16591E-3
MEAN_MOTION_DOT = .261E-5
MEAN_MOTION_DDOT = 0

CCSDS_OMM_VERS = 2.0
CREATION_DATE  = 
ORIGINATOR     = 

OBJECT_NAME    = SL-16 R/B
OBJECT_ID      = 2007-029B
CENTER_NAME    = EARTH
REF_FRAME      = TEME
TIME_SYSTEM    = UTC
MEAN_ELEMENT_THEORY = SGP/SGP4

EPOCH          = 2026-02-15T19:04:13.833120
MEAN_MOTION    = 14.14836137
ECCENTRICITY   = .0002258
INCLINATION    = 70.9743
RA_OF_ASC_NODE = 218.4072
ARG_OF_PERICENTER = 282.5684
MEAN_ANOMALY   = 172.7826

EPHEMERIS_TYPE = 0
CLASSIFICATION_TYPE = U
NORAD_CAT_ID   = 31793
ELEMENT_SET_NO = 999
REV_AT_EPOCH   = 96227
BSTAR          = .73416E-4
MEAN_MOTION_DOT = .94E-6
MEAN_MOTION_DDOT = 0

CCSDS_OMM_VERS = 2.0
CREATION_DATE  = 
ORIGINATOR     = 

OBJECT_NAME    = KORONAS-FOTON
OBJECT_ID      = 2009-003A
CENTER_NAME    = EARTH
REF_FRAME      = TEME
TIME_SYSTEM    = UTC
MEAN_ELEMENT_THEORY = SGP/SGP4

EPOCH          = 2026-02-15T18:43:24.711168
MEAN_MOTION    = 15.42743893
ECCENTRICITY   = .000921
INCLINATION    = 82.4314
RA_OF_ASC_NODE = 298.6457
ARG_OF_PERICENTER = 231.0260
MEAN_ANOMALY   = 129.0167

EPHEMERIS_TYPE = 0
CLASSIFICATION_TYPE = U
NORAD_CAT_ID   = 33504
ELEMENT_SET_NO = 999
REV_AT_EPOCH   = 94236
BSTAR          = .32636E-3
MEAN_MOTION_DOT = .1432E-3
MEAN_MOTION_DDOT = 0

CCSDS_OMM_VERS = 2.0
CREATION_DATE  = 
ORIGINATOR     = 

OBJECT_NAME    = CZ-2C R/B
OBJECT_ID      = 2011-030B
CENTER_NAME    = EARTH
REF_FRAME      = TEME
TIME_SYSTEM    = UTC
MEAN_ELEMENT_THEORY = SGP/SGP4

EPOCH          = 2026-02-15T18:59:39.175296
MEAN_MOTION    = 14.81134278
ECCENTRICITY   = .0054105
INCLINATION    = 97.8508
RA_OF_ASC_NODE = 4.5008
ARG_OF_PERICENTER = 62.3592
MEAN_ANOMALY   = 357.9811

EPHEMERIS_TYPE = 0
CLASSIFICATION_TYPE = U
NORAD_CAT_ID   = 37731
ELEMENT_SET_NO = 999
REV_AT_EPOCH   = 78685
BSTAR          = .22105E-3
MEAN_MOTION_DOT = .1707E-4
MEAN_MOTION_DDOT = 0

CCSDS_OMM_VERS = 2.0
CREATION_DATE  = 
ORIGINATOR     = 

OBJECT_NAME    = H-2A R/B
OBJECT_ID      = 2012-025E
CENTER_NAME    = EARTH
REF_FRAME      = TEME
TIME_SYSTEM    = UTC
MEAN_ELEMENT_THEORY = SGP/SGP4

EPOCH          = 2026-02-15T18:38:06.891360
MEAN_MOTION    = 14.94969589
ECCENTRICITY   = .0045389
INCLINATION    = 98.4688
RA_OF_ASC_NODE = 12.0788
ARG_OF_PERICENTER = 26.4482
MEAN_ANOMALY   = 333.9039

EPHEMERIS_TYPE = 0
CLASSIFICATION_TYPE = U
NORAD_CAT_ID   = 38341
ELEMENT_SET_NO = 999
REV_AT_EPOCH   = 74494
BSTAR          = .43742E-3
MEAN_MOTION_DOT = .4809E-4
MEAN_MOTION_DDOT = 0

CCSDS_OMM_VERS = 2.0
CREATION_DATE  = 
ORIGINATOR     = 

OBJECT_NAME    = SHIJIAN-16 (SJ-16)
OBJECT_ID      = 2013-057A
CENTER_NAME    = EARTH
REF_FRAME      = TEME
TIME_SYSTEM    = UTC
MEAN_ELEMENT_THEORY = SGP/SGP4

EPOCH          = 2026-02-15T20:10:27.630048
MEAN_MOTION    = 14.92255223
ECCENTRICITY   = .0016532
INCLINATION    = 74.9699
RA_OF_ASC_NODE = 226.4477
ARG_OF_PERICENTER = 167.4932
MEAN_ANOMALY   = 192.6670

EPHEMERIS_TYPE = 0
CLASSIFICATION_TYPE = U
NORAD_CAT_ID   = 39358
ELEMENT_SET_NO = 999
REV_AT_EPOCH   = 66824
BSTAR          = .87624E-4
MEAN_MOTION_DOT = .867E-5
MEAN_MOTION_DDOT = 0

